{
  "type": "FeatureCollection",
  "features": [
    {
      "type": "Feature",
      "properties": {
        "norad_id": 36036,
        "name": "SMOS",
        "group": "resource",
        "lat": 62.46780661121898,
        "lon": 166.2016575562849,
        "alt_km": 752.4910040576924,
        "timestamp": "2025-12-23T20:42:36.729253+00:00",
        "meta_object_name": "SMOS",
        "meta_object_id": "2009-059A",
        "meta_epoch": "2025-12-22T22:43:56.958528",
        "meta_mean_motion": 14.39750085,
        "meta_eccentricity": 0.00010622,
        "meta_inclination": 98.438,
        "meta_ra_of_asc_node": 181.8445,
        "meta_arg_of_pericenter": 83.5939,
        "meta_mean_anomaly": 276.537,
        "meta_ephemeris_type": 0,
        "meta_classification_type": "U",
        "meta_norad_cat_id": 36036,
        "meta_element_set_no": 999,
        "meta_rev_at_epoch": 84809,
        "meta_bstar": 0.00013392467,
        "meta_mean_motion_dot": 3.76e-06,
        "meta_mean_motion_ddot": 0,
        "tle_line1": "1 36036U 09059A   25356.94718702  .00000376  00000+0  13392-3 0  9996",
        "tle_line2": "2 36036  98.4380 181.8445 0001062  83.5939 276.5370 14.39750085848090"
      },
      "geometry": {
        "type": "Point",
        "coordinates": [
          166.2016575562849,
          62.46780661121898
        ]
      }
    },
    {
      "type": "Feature",
      "properties": {
        "norad_id": 36110,
        "name": "YAOGAN-7",
        "group": "resource",
        "lat": -31.847697390337085,
        "lon": -115.38976266758512,
        "alt_km": 640.9030681421018,
        "timestamp": "2025-12-23T20:42:36.729264+00:00",
        "meta_object_name": "YAOGAN-7",
        "meta_object_id": "2009-069A",
        "meta_epoch": "2025-12-23T04:36:17.801280",
        "meta_mean_motion": 14.77746979,
        "meta_eccentricity": 0.00234164,
        "meta_inclination": 98.0295,
        "meta_ra_of_asc_node": 238.9113,
        "meta_arg_of_pericenter": 245.627,
        "meta_mean_anomaly": 114.2496,
        "meta_ephemeris_type": 0,
        "meta_classification_type": "U",
        "meta_norad_cat_id": 36110,
        "meta_element_set_no": 999,
        "meta_rev_at_epoch": 86363,
        "meta_bstar": 9.029718e-05,
        "meta_mean_motion_dot": 5.97e-06,
        "meta_mean_motion_ddot": 0,
        "tle_line1": "1 36110U 09069A   25357.19187270  .00000597  00000+0  90297-4 0  9993",
        "tle_line2": "2 36110  98.0295 238.9113 0023416 245.6270 114.2496 14.77746979863639"
      },
      "geometry": {
        "type": "Point",
        "coordinates": [
          -115.38976266758512,
          -31.847697390337085
        ]
      }
    },
    {
      "type": "Feature",
      "properties": {
        "norad_id": 36605,
        "name": "TANDEM-X",
        "group": "resource",
        "lat": 67.41625359664776,
        "lon": -15.24253151683027,
        "alt_km": 500.6021767979146,
        "timestamp": "2025-12-23T20:42:36.729274+00:00",
        "meta_object_name": "TANDEM-X",
        "meta_object_id": "2010-030A",
        "meta_epoch": "2025-12-22T14:22:24.829536",
        "meta_mean_motion": 15.19158129,
        "meta_eccentricity": 0.0001799,
        "meta_inclination": 97.4444,
        "meta_ra_of_asc_node": 1.8349,
        "meta_arg_of_pericenter": 78.6886,
        "meta_mean_anomaly": 281.4551,
        "meta_ephemeris_type": 0,
        "meta_classification_type": "U",
        "meta_norad_cat_id": 36605,
        "meta_element_set_no": 999,
        "meta_rev_at_epoch": 85983,
        "meta_bstar": 3.9682032e-05,
        "meta_mean_motion_dot": 7.67e-06,
        "meta_mean_motion_ddot": 0,
        "tle_line1": "1 36605U 10030A   25356.59889849  .00000767  00000+0  39682-4 0  9996",
        "tle_line2": "2 36605  97.4444   1.8349 0001799  78.6886 281.4551 15.19158129859839"
      },
      "geometry": {
        "type": "Point",
        "coordinates": [
          -15.24253151683027,
          67.41625359664776
        ]
      }
    },
    {
      "type": "Feature",
      "properties": {
        "norad_id": 36795,
        "name": "CARTOSAT-2B",
        "group": "resource",
        "lat": -64.54984413255931,
        "lon": 63.23467903380332,
        "alt_km": 643.4534414083018,
        "timestamp": "2025-12-23T20:42:36.729284+00:00",
        "meta_object_name": "CARTOSAT-2B",
        "meta_object_id": "2010-035A",
        "meta_epoch": "2025-12-23T08:00:53.112384",
        "meta_mean_motion": 14.78739743,
        "meta_eccentricity": 0.00126867,
        "meta_inclination": 97.7837,
        "meta_ra_of_asc_node": 46.0195,
        "meta_arg_of_pericenter": 45.3471,
        "meta_mean_anomaly": 314.8773,
        "meta_ephemeris_type": 0,
        "meta_classification_type": "U",
        "meta_norad_cat_id": 36795,
        "meta_element_set_no": 999,
        "meta_rev_at_epoch": 83386,
        "meta_bstar": 0.00010458297,
        "meta_mean_motion_dot": 7.19e-06,
        "meta_mean_motion_ddot": 0,
        "tle_line1": "1 36795U 10035A   25357.33394806  .00000719  00000+0  10458-3 0  9994",
        "tle_line2": "2 36795  97.7837  46.0195 0012686  45.3471 314.8773 14.78739743833869"
      },
      "geometry": {
        "type": "Point",
        "coordinates": [
          63.23467903380332,
          -64.54984413255931
        ]
      }
    },
    {
      "type": "Feature",
      "properties": {
        "norad_id": 36834,
        "name": "YAOGAN-10",
        "group": "resource",
        "lat": -69.0740860844382,
        "lon": 176.27057163151977,
        "alt_km": 622.902727658412,
        "timestamp": "2025-12-23T20:42:36.729295+00:00",
        "meta_object_name": "YAOGAN-10",
        "meta_object_id": "2010-038A",
        "meta_epoch": "2025-12-23T07:13:16.395744",
        "meta_mean_motion": 14.84644367,
        "meta_eccentricity": 0.00013423,
        "meta_inclination": 97.9127,
        "meta_ra_of_asc_node": 17.0419,
        "meta_arg_of_pericenter": 79.421,
        "meta_mean_anomaly": 48.9831,
        "meta_ephemeris_type": 0,
        "meta_classification_type": "U",
        "meta_norad_cat_id": 36834,
        "meta_element_set_no": 999,
        "meta_rev_at_epoch": 83110,
        "meta_bstar": 0.00023974918,
        "meta_mean_motion_dot": 1.973e-05,
        "meta_mean_motion_ddot": 0,
        "tle_line1": "1 36834U 10038A   25357.30088421  .00001973  00000+0  23975-3 0  9992",
        "tle_line2": "2 36834  97.9127  17.0419 0001342  79.4210  48.9831 14.84644367831109"
      },
      "geometry": {
        "type": "Point",
        "coordinates": [
          176.27057163151977,
          -69.0740860844382
        ]
      }
    },
    {
      "type": "Feature",
      "properties": {
        "norad_id": 37216,
        "name": "COSMO-SKYMED 4",
        "group": "resource",
        "lat": 72.79801433995391,
        "lon": 152.4434190729599,
        "alt_km": 614.5807301613604,
        "timestamp": "2025-12-23T20:42:36.729305+00:00",
        "meta_object_name": "COSMO-SKYMED 4",
        "meta_object_id": "2010-060A",
        "meta_epoch": "2025-12-23T07:24:45.434016",
        "meta_mean_motion": 14.82154612,
        "meta_eccentricity": 0.00013793,
        "meta_inclination": 97.88,
        "meta_ra_of_asc_node": 178.4726,
        "meta_arg_of_pericenter": 80.881,
        "meta_mean_anomaly": 279.2559,
        "meta_ephemeris_type": 0,
        "meta_classification_type": "U",
        "meta_norad_cat_id": 37216,
        "meta_element_set_no": 999,
        "meta_rev_at_epoch": 81851,
        "meta_bstar": -2.289091e-06,
        "meta_mean_motion_dot": -7e-07,
        "meta_mean_motion_ddot": 0,
        "tle_line1": "1 37216U 10060A   25357.30885919 -.00000070  00000+0 -22891-5 0  9996",
        "tle_line2": "2 37216  97.8800 178.4726 0001379  80.8810 279.2559 14.82154612818519"
      },
      "geometry": {
        "type": "Point",
        "coordinates": [
          152.4434190729599,
          72.79801433995391
        ]
      }
    },
    {
      "type": "Feature",
      "properties": {
        "norad_id": 37387,
        "name": "RESOURCESAT-2",
        "group": "resource",
        "lat": 40.232360734546845,
        "lon": -111.11747362765743,
        "alt_km": 819.3177002915945,
        "timestamp": "2025-12-23T20:42:36.729316+00:00",
        "meta_object_name": "RESOURCESAT-2",
        "meta_object_id": "2011-015A",
        "meta_epoch": "2025-12-23T01:28:38.314848",
        "meta_mean_motion": 14.216012,
        "meta_eccentricity": 0.00059354,
        "meta_inclination": 98.7862,
        "meta_ra_of_asc_node": 60.5664,
        "meta_arg_of_pericenter": 14.45,
        "meta_mean_anomaly": 345.6845,
        "meta_ephemeris_type": 0,
        "meta_classification_type": "U",
        "meta_norad_cat_id": 37387,
        "meta_element_set_no": 999,
        "meta_rev_at_epoch": 76115,
        "meta_bstar": 8.7816171e-05,
        "meta_mean_motion_dot": 1.48e-06,
        "meta_mean_motion_ddot": 0,
        "tle_line1": "1 37387U 11015A   25357.06155457  .00000148  00000+0  87816-4 0  9997",
        "tle_line2": "2 37387  98.7862  60.5664 0005935  14.4500 345.6845 14.21601200761155"
      },
      "geometry": {
        "type": "Point",
        "coordinates": [
          -111.11747362765743,
          40.232360734546845
        ]
      }
    }
  ]
}